[{"OBJECT_NAME":"MTG-S1","OBJECT_ID":"2025-143A","EPOCH":"2026-04-05T02:27:37.636416","MEAN_MOTION":1.00273594,"ECCENTRICITY":0.00020591,"INCLINATION":0.6196,"RA_OF_ASC_NODE":332.4344,"ARG_OF_PERICENTER":359.3781,"MEAN_ANOMALY":254.9879,"EPHEMERIS_TYPE":0,"CLASSIFICATION_TYPE":"U","NORAD_CAT_ID":64723,"ELEMENT_SET_NO":999,"REV_AT_EPOCH":268,"BSTAR":0,"MEAN_MOTION_DOT":-3.1e-7,"MEAN_MOTION_DDOT":0},{"OBJECT_NAME":"DROR 1","OBJECT_ID":"2025-148A","EPOCH":"2026-04-05T05:52:47.701920","MEAN_MOTION":1.00271836,"ECCENTRICITY":0.00036161,"INCLINATION":0.0509,"RA_OF_ASC_NODE":68.6357,"ARG_OF_PERICENTER":296.2543,"MEAN_ANOMALY":272.8453,"EPHEMERIS_TYPE":0,"CLASSIFICATION_TYPE":"U","NORAD_CAT_ID":64784,"ELEMENT_SET_NO":999,"REV_AT_EPOCH":256,"BSTAR":0,"MEAN_MOTION_DOT":-3.3e-7,"MEAN_MOTION_DDOT":0},{"OBJECT_NAME":"SHIYAN-29","OBJECT_ID":"2025-196A","EPOCH":"2026-04-05T00:07:45.070464","MEAN_MOTION":1.00279347,"ECCENTRICITY":0.0009615,"INCLINATION":28.7451,"RA_OF_ASC_NODE":19.4581,"ARG_OF_PERICENTER":177.4148,"MEAN_ANOMALY":93.8716,"EPHEMERIS_TYPE":0,"CLASSIFICATION_TYPE":"U","NORAD_CAT_ID":65486,"ELEMENT_SET_NO":999,"REV_AT_EPOCH":214,"BSTAR":0,"MEAN_MOTION_DOT":-2.76e-6,"MEAN_MOTION_DDOT":0},{"OBJECT_NAME":"TJS-20","OBJECT_ID":"2025-238A","EPOCH":"2026-04-05T04:22:38.761248","MEAN_MOTION":1.00271366,"ECCENTRICITY":0.00084725,"INCLINATION":5.6327,"RA_OF_ASC_NODE":299.8224,"ARG_OF_PERICENTER":103.8939,"MEAN_ANOMALY":277.794,"EPHEMERIS_TYPE":0,"CLASSIFICATION_TYPE":"U","NORAD_CAT_ID":66142,"ELEMENT_SET_NO":999,"REV_AT_EPOCH":160,"BSTAR":0,"MEAN_MOTION_DOT":2.1e-7,"MEAN_MOTION_DDOT":0},{"OBJECT_NAME":"CMS-03 (GSAT-7R)","OBJECT_ID":"2025-249B","EPOCH":"2026-04-05T04:32:10.692096","MEAN_MOTION":1.00272319,"ECCENTRICITY":0.00038831,"INCLINATION":0.0477,"RA_OF_ASC_NODE":264.7517,"ARG_OF_PERICENTER":101.8949,"MEAN_ANOMALY":328.8996,"EPHEMERIS_TYPE":0,"CLASSIFICATION_TYPE":"U","NORAD_CAT_ID":66311,"ELEMENT_SET_NO":999,"REV_AT_EPOCH":161,"BSTAR":0,"MEAN_MOTION_DOT":-7.6e-7,"MEAN_MOTION_DDOT":0},{"OBJECT_NAME":"VIASAT-3 F2","OBJECT_ID":"2025-261A","EPOCH":"2026-04-05T04:03:38.630304","MEAN_MOTION":1.00272389,"ECCENTRICITY":0.00027418,"INCLINATION":0.0392,"RA_OF_ASC_NODE":270.4026,"ARG_OF_PERICENTER":172.6931,"MEAN_ANOMALY":92.3082,"EPHEMERIS_TYPE":0,"CLASSIFICATION_TYPE":"U","NORAD_CAT_ID":66454,"ELEMENT_SET_NO":999,"REV_AT_EPOCH":205,"BSTAR":0,"MEAN_MOTION_DOT":-2.33e-6,"MEAN_MOTION_DDOT":0},{"OBJECT_NAME":"SHIJIAN-28 (SJ-28)","OBJECT_ID":"2025-277A","EPOCH":"2026-04-05T06:27:21.886848","MEAN_MOTION":1.00273383,"ECCENTRICITY":7.18e-6,"INCLINATION":4.7268,"RA_OF_ASC_NODE":273.2491,"ARG_OF_PERICENTER":175.479,"MEAN_ANOMALY":318.5316,"EPHEMERIS_TYPE":0,"CLASSIFICATION_TYPE":"U","NORAD_CAT_ID":66549,"ELEMENT_SET_NO":999,"REV_AT_EPOCH":142,"BSTAR":0,"MEAN_MOTION_DOT":-3.64e-6,"MEAN_MOTION_DDOT":0},{"OBJECT_NAME":"TJS-22","OBJECT_ID":"2025-290A","EPOCH":"2026-04-05T01:40:25.497120","MEAN_MOTION":1.00273118,"ECCENTRICITY":0.00025279,"INCLINATION":1.7087,"RA_OF_ASC_NODE":285.7191,"ARG_OF_PERICENTER":1.4769,"MEAN_ANOMALY":357.7496,"EPHEMERIS_TYPE":0,"CLASSIFICATION_TYPE":"U","NORAD_CAT_ID":66990,"ELEMENT_SET_NO":999,"REV_AT_EPOCH":129,"BSTAR":0,"MEAN_MOTION_DOT":-8.0e-8,"MEAN_MOTION_DDOT":0},{"OBJECT_NAME":"TJS-23","OBJECT_ID":"2025-306A","EPOCH":"2026-04-04T19:16:11.920800","MEAN_MOTION":1.0027469,"ECCENTRICITY":0.00066014,"INCLINATION":5.7558,"RA_OF_ASC_NODE":297.8505,"ARG_OF_PERICENTER":118.6284,"MEAN_ANOMALY":241.1987,"EPHEMERIS_TYPE":0,"CLASSIFICATION_TYPE":"U","NORAD_CAT_ID":67226,"ELEMENT_SET_NO":999,"REV_AT_EPOCH":115,"BSTAR":0,"MEAN_MOTION_DOT":1.2e-7,"MEAN_MOTION_DDOT":0},{"OBJECT_NAME":"FENGYUN 4C","OBJECT_ID":"2025-312A","EPOCH":"2026-04-04T23:41:16.646208","MEAN_MOTION":1.00271495,"ECCENTRICITY":7.498e-5,"INCLINATION":0.0173,"RA_OF_ASC_NODE":86.0552,"ARG_OF_PERICENTER":4.1684,"MEAN_ANOMALY":231.3872,"EPHEMERIS_TYPE":0,"CLASSIFICATION_TYPE":"U","NORAD_CAT_ID":67246,"ELEMENT_SET_NO":999,"REV_AT_EPOCH":104,"BSTAR":0,"MEAN_MOTION_DOT":-3.22e-6,"MEAN_MOTION_DDOT":0},{"OBJECT_NAME":"SHIJIAN-29A (SJ-29A)","OBJECT_ID":"2025-315A","EPOCH":"2026-04-05T02:01:51.747744","MEAN_MOTION":1.00274602,"ECCENTRICITY":0.00028291,"INCLINATION":3.2118,"RA_OF_ASC_NODE":96.942,"ARG_OF_PERICENTER":317.9881,"MEAN_ANOMALY":242.1953,"EPHEMERIS_TYPE":0,"CLASSIFICATION_TYPE":"U","NORAD_CAT_ID":67302,"ELEMENT_SET_NO":999,"REV_AT_EPOCH":88,"BSTAR":0,"MEAN_MOTION_DOT":-6.6e-7,"MEAN_MOTION_DDOT":0},{"OBJECT_NAME":"SHIJIAN-29B (SJ-29B)","OBJECT_ID":"2025-315C","EPOCH":"2026-04-05T02:01:51.747744","MEAN_MOTION":1.00275041,"ECCENTRICITY":0.00057123,"INCLINATION":3.211,"RA_OF_ASC_NODE":96.9357,"ARG_OF_PERICENTER":329.3939,"MEAN_ANOMALY":230.8643,"EPHEMERIS_TYPE":0,"CLASSIFICATION_TYPE":"U","NORAD_CAT_ID":67403,"ELEMENT_SET_NO":999,"REV_AT_EPOCH":95,"BSTAR":0,"MEAN_MOTION_DOT":-6.7e-7,"MEAN_MOTION_DDOT":0},{"OBJECT_NAME":"ELEKTRO-L 5","OBJECT_ID":"2026-028A","EPOCH":"2026-04-04T06:05:23.519616","MEAN_MOTION":1.00271792,"ECCENTRICITY":6.358e-5,"INCLINATION":0.4108,"RA_OF_ASC_NODE":293.6469,"ARG_OF_PERICENTER":210.3339,"MEAN_ANOMALY":216.0149,"EPHEMERIS_TYPE":0,"CLASSIFICATION_TYPE":"U","NORAD_CAT_ID":67756,"ELEMENT_SET_NO":999,"REV_AT_EPOCH":52,"BSTAR":0,"MEAN_MOTION_DOT":-9.9e-7,"MEAN_MOTION_DDOT":0},{"OBJECT_NAME":"JAM-E JAM 1","OBJECT_ID":"2026-028B","EPOCH":"2026-04-05T05:04:38.688960","MEAN_MOTION":1.00270014,"ECCENTRICITY":0.00019233,"INCLINATION":0.4289,"RA_OF_ASC_NODE":288.5291,"ARG_OF_PERICENTER":128.7806,"MEAN_ANOMALY":246.2408,"EPHEMERIS_TYPE":0,"CLASSIFICATION_TYPE":"U","NORAD_CAT_ID":67757,"ELEMENT_SET_NO":999,"REV_AT_EPOCH":39,"BSTAR":0,"MEAN_MOTION_DOT":1.56e-6,"MEAN_MOTION_DDOT":0},{"OBJECT_NAME":"ECHOSTAR 25","OBJECT_ID":"2026-045A","EPOCH":"2026-04-05T05:49:38.503200","MEAN_MOTION":1.00271198,"ECCENTRICITY":0.00017855,"INCLINATION":0.0337,"RA_OF_ASC_NODE":281.7974,"ARG_OF_PERICENTER":154.0499,"MEAN_ANOMALY":76.2518,"EPHEMERIS_TYPE":0,"CLASSIFICATION_TYPE":"U","NORAD_CAT_ID":68126,"ELEMENT_SET_NO":999,"REV_AT_EPOCH":26,"BSTAR":0,"MEAN_MOTION_DOT":5.9e-7,"MEAN_MOTION_DDOT":0}]
